[{"OBJECT_NAME":"TIANMU-1 10","OBJECT_ID":"2023-101D","EPOCH":"2026-03-09T23:06:46.939392","MEAN_MOTION":15.2921896,"ECCENTRICITY":0.00069292,"INCLINATION":97.2749,"RA_OF_ASC_NODE":122.1027,"ARG_OF_PERICENTER":133.6162,"MEAN_ANOMALY":226.5654,"EPHEMERIS_TYPE":0,"CLASSIFICATION_TYPE":"U","NORAD_CAT_ID":57402,"ELEMENT_SET_NO":999,"REV_AT_EPOCH":14647,"BSTAR":0.00032238884,"MEAN_MOTION_DOT":9.075e-5,"MEAN_MOTION_DDOT":0},{"OBJECT_NAME":"STARLINK-34267","OBJECT_ID":"2025-167C","EPOCH":"2026-03-09T07:25:19.066944","MEAN_MOTION":15.30193758,"ECCENTRICITY":0.00011356,"INCLINATION":53.1606,"RA_OF_ASC_NODE":26.2001,"ARG_OF_PERICENTER":79.1858,"MEAN_ANOMALY":280.9271,"EPHEMERIS_TYPE":0,"CLASSIFICATION_TYPE":"U","NORAD_CAT_ID":65080,"ELEMENT_SET_NO":999,"REV_AT_EPOCH":3467,"BSTAR":0.0011888808,"MEAN_MOTION_DOT":0.00035011,"MEAN_MOTION_DDOT":0}]
